[{"OBJECT_NAME":"OBJECT E","OBJECT_ID":"2024-153E","EPOCH":"2026-03-09T23:09:09.513216","MEAN_MOTION":15.24133271,"ECCENTRICITY":4.895e-5,"INCLINATION":97.6591,"RA_OF_ASC_NODE":203.8355,"ARG_OF_PERICENTER":171.5214,"MEAN_ANOMALY":188.6031,"EPHEMERIS_TYPE":0,"CLASSIFICATION_TYPE":"U","NORAD_CAT_ID":60749,"ELEMENT_SET_NO":999,"REV_AT_EPOCH":8470,"BSTAR":0.00081752478,"MEAN_MOTION_DOT":0.00019841,"MEAN_MOTION_DDOT":0},{"OBJECT_NAME":"FOREST-3","OBJECT_ID":"2025-009CB","EPOCH":"2026-03-09T16:52:36.334848","MEAN_MOTION":15.23505035,"ECCENTRICITY":0.00043691,"INCLINATION":97.3949,"RA_OF_ASC_NODE":149.5432,"ARG_OF_PERICENTER":350.1299,"MEAN_ANOMALY":9.9851,"EPHEMERIS_TYPE":0,"CLASSIFICATION_TYPE":"U","NORAD_CAT_ID":62682,"ELEMENT_SET_NO":999,"REV_AT_EPOCH":12128,"BSTAR":0.000357114,"MEAN_MOTION_DOT":8.458e-5,"MEAN_MOTION_DDOT":0}]
